{"type": "FeatureCollection", "features": [ {"type": "Feature", "properties": {"norad_id": 66389, "name": "STARLINK-35694", "group": "last-30-days", "lat": 35.7698938861844, "lon": -33.03995374217192, "alt_km": 442.01984048709073, "timestamp": "2025-12-06T09:34:15.697879+00:00", "meta": {"OBJECT_NAME": "STARLINK-35694", "OBJECT_ID": "2025-257K", "EPOCH": "2025-12-05T22:00:03.000096", "MEAN_MOTION": 15.39577996, "ECCENTRICITY": 0.00015103, "INCLINATION": 53.1602, "RA_OF_ASC_NODE": 296.5411, "ARG_OF_PERICENTER": 98.8322, "MEAN_ANOMALY": 154.6446, "EPHEMERIS_TYPE": 0, "CLASSIFICATION_TYPE": "U", "NORAD_CAT_ID": 66389, "ELEMENT_SET_NO": 999, "REV_AT_EPOCH": 540, "BSTAR": 0.001360003, "MEAN_MOTION_DOT": 0.00054313, "MEAN_MOTION_DDOT": 0}, "tle": {"line1": "1 66389U 25257K   25339.91670139  .00054313  00000+0  13600-2 0  9998", "line2": "2 66389  53.1602 296.5411 0001510  98.8322 154.6446 15.39577996  5408"}}, "geometry": {"type": "Point", "coordinates": [-33.03995374217192, 35.7698938861844]}}, {"type": "Feature", "properties": {"norad_id": 66390, "name": "STARLINK-35665", "group": "last-30-days", "lat": 24.225188008123258, "lon": 94.34729390105157, "alt_km": 414.6294625297078, "timestamp": "2025-12-06T09:34:15.697889+00:00", "meta": {"OBJECT_NAME": "STARLINK-35665", "OBJECT_ID": "2025-257L", "EPOCH": "2025-12-05T22:05:38.821344", "MEAN_MOTION": 15.49362043, "ECCENTRICITY": 0.0001551, "INCLINATION": 53.1588, "RA_OF_ASC_NODE": 296.3504, "ARG_OF_PERICENTER": 107.4357, "MEAN_ANOMALY": 252.6822, "EPHEMERIS_TYPE": 0, "CLASSIFICATION_TYPE": "U", "NORAD_CAT_ID": 66390, "ELEMENT_SET_NO": 999, "REV_AT_EPOCH": 542, "BSTAR": 0.0029119663, "MEAN_MOTION_DOT": 0.00165283, "MEAN_MOTION_DDOT": 0}, "tle": {"line1": "1 66390U 25257L   25339.92058821  .00165283  00000+0  29120-2 0  9992", "line2": "2 66390  53.1588 296.3504 0001551 107.4357 252.6822 15.49362043  5429"}}, "geometry": {"type": "Point", "coordinates": [94.34729390105157, 24.225188008123258]}}, {"type": "Feature", "properties": {"norad_id": 66391, "name": "STARLINK-35656", "group": "last-30-days", "lat": 38.591614449219875, "lon": -29.004574816873152, "alt_km": 437.51594392046263, "timestamp": "2025-12-06T09:34:15.697899+00:00", "meta": {"OBJECT_NAME": "STARLINK-35656", "OBJECT_ID": "2025-257M", "EPOCH": "2025-12-05T03:46:18.556608", "MEAN_MOTION": 15.40317588, "ECCENTRICITY": 9.833e-05, "INCLINATION": 53.1603, "RA_OF_ASC_NODE": 300.1096, "ARG_OF_PERICENTER": 171.4639, "MEAN_ANOMALY": 188.6383, "EPHEMERIS_TYPE": 0, "CLASSIFICATION_TYPE": "U", "NORAD_CAT_ID": 66391, "ELEMENT_SET_NO": 999, "REV_AT_EPOCH": 530, "BSTAR": 0.0098522303, "MEAN_MOTION_DOT": 0.00426205, "MEAN_MOTION_DDOT": 0}, "tle": {"line1": "1 66391U 25257M   25339.15715922  .00426205  00000+0  98522-2 0  9996", "line2": "2 66391  53.1603 300.1096 0000983 171.4639 188.6383 15.40317588  5302"}}, "geometry": {"type": "Point", "coordinates": [-29.004574816873152, 38.591614449219875]}}, {"type": "Feature", "properties": {"norad_id": 66392, "name": "STARLINK-35671", "group": "last-30-days", "lat": 16.75573242848881, "lon": -52.63491515074064, "alt_km": 445.7815961296965, "timestamp": "2025-12-06T09:34:15.697910+00:00", "meta": {"OBJECT_NAME": "STARLINK-35671", "OBJECT_ID": "2025-257N", "EPOCH": "2025-12-05T22:00:03.000096", "MEAN_MOTION": 15.3958122, "ECCENTRICITY": 0.00022044, "INCLINATION": 53.1609, "RA_OF_ASC_NODE": 296.5924, "ARG_OF_PERICENTER": 113.9473, "MEAN_ANOMALY": 113.7464, "EPHEMERIS_TYPE": 0, "CLASSIFICATION_TYPE": "U", "NORAD_CAT_ID": 66392, "ELEMENT_SET_NO": 999, "REV_AT_EPOCH": 540, "BSTAR": 0.0013949805, "MEAN_MOTION_DOT": 0.00055738, "MEAN_MOTION_DDOT": 0}, "tle": {"line1": "1 66392U 25257N   25339.91670139  .00055738  00000+0  13950-2 0  9992", "line2": "2 66392  53.1609 296.5924 0002204 113.9473 113.7464 15.39581220  5406"}}, "geometry": {"type": "Point", "coordinates": [-52.63491515074064, 16.75573242848881]}}, {"type": "Feature", "properties": {"norad_id": 66393, "name": "STARLINK-35652", "group": "last-30-days", "lat": 49.0987640280303, "lon": -5.842259125809929, "alt_km": 440.6915740572558, "timestamp": "2025-12-06T09:34:15.697923+00:00", "meta": {"OBJECT_NAME": "STARLINK-35652", "OBJECT_ID": "2025-257P", "EPOCH": "2025-12-05T22:00:03.000096", "MEAN_MOTION": 15.40541168, "ECCENTRICITY": 0.00019099, "INCLINATION": 53.1596, "RA_OF_ASC_NODE": 296.4943, "ARG_OF_PERICENTER": 100.4718, "MEAN_ANOMALY": 176.4311, "EPHEMERIS_TYPE": 0, "CLASSIFICATION_TYPE": "U", "NORAD_CAT_ID": 66393, "ELEMENT_SET_NO": 999, "REV_AT_EPOCH": 540, "BSTAR": -0.034505419, "MEAN_MOTION_DOT": -0.01284768, "MEAN_MOTION_DDOT": 0}, "tle": {"line1": "1 66393U 25257P   25339.91670139 -.01284768  00000+0 -34505-1 0  9991", "line2": "2 66393  53.1596 296.4943 0001909 100.4718 176.4311 15.40541168  5402"}}, "geometry": {"type": "Point", "coordinates": [-5.842259125809929, 49.0987640280303]}}, {"type": "Feature", "properties": {"norad_id": 66394, "name": "STARLINK-35672", "group": "last-30-days", "lat": 49.80465859971055, "lon": -3.244151127516498, "alt_km": 440.096845006251, "timestamp": "2025-12-06T09:34:15.697937+00:00", "meta": {"OBJECT_NAME": "STARLINK-35672", "OBJECT_ID": "2025-257Q", "EPOCH": "2025-12-05T22:00:03.000096", "MEAN_MOTION": 15.40049253, "ECCENTRICITY": 0.00018267, "INCLINATION": 53.1596, "RA_OF_ASC_NODE": 296.4889, "ARG_OF_PERICENTER": 74.712, "MEAN_ANOMALY": 204.3146, "EPHEMERIS_TYPE": 0, "CLASSIFICATION_TYPE": "U", "NORAD_CAT_ID": 66394, "ELEMENT_SET_NO": 999, "REV_AT_EPOCH": 540, "BSTAR": -0.018433382, "MEAN_MOTION_DOT": -0.00693295, "MEAN_MOTION_DDOT": 0}, "tle": {"line1": "1 66394U 25257Q   25339.91670139 -.00693295  00000+0 -18433-1 0  9992", "line2": "2 66394  53.1596 296.4889 0001826  74.7120 204.3146 15.40049253  5405"}}, "geometry": {"type": "Point", "coordinates": [-3.244151127516498, 49.80465859971055]}}, {"type": "Feature", "properties": {"norad_id": 66395, "name": "STARLINK-35681", "group": "last-30-days", "lat": 52.757413108225194, "lon": 33.69634993107914, "alt_km": 434.34651646353086, "timestamp": "2025-12-06T09:34:15.697949+00:00", "meta": {"OBJECT_NAME": "STARLINK-35681", "OBJECT_ID": "2025-257R", "EPOCH": "2025-12-05T22:00:03.000096", "MEAN_MOTION": 15.43378575, "ECCENTRICITY": 0.00013967, "INCLINATION": 53.1594, "RA_OF_ASC_NODE": 296.453, "ARG_OF_PERICENTER": 110.4518, "MEAN_ANOMALY": 187.079, "EPHEMERIS_TYPE": 0, "CLASSIFICATION_TYPE": "U", "NORAD_CAT_ID": 66395, "ELEMENT_SET_NO": 999, "REV_AT_EPOCH": 523, "BSTAR": -0.050903191, "MEAN_MOTION_DOT": -0.02051258, "MEAN_MOTION_DDOT": 0}, "tle": {"line1": "1 66395U 25257R   25339.91670139 -.02051258  00000+0 -50903-1 0  9990", "line2": "2 66395  53.1594 296.4530 0001396 110.4518 187.0790 15.43378575  5236"}}, "geometry": {"type": "Point", "coordinates": [33.69634993107914, 52.757413108225194]}}, {"type": "Feature", "properties": {"norad_id": 66396, "name": "STARLINK-35669", "group": "last-30-days", "lat": 40.39226220471331, "lon": 74.47452468729702, "alt_km": 411.0067039198948, "timestamp": "2025-12-06T09:34:15.697960+00:00", "meta": {"OBJECT_NAME": "STARLINK-35669", "OBJECT_ID": "2025-257S", "EPOCH": "2025-12-05T14:27:24.793056", "MEAN_MOTION": 15.49619062, "ECCENTRICITY": 0.00015262, "INCLINATION": 53.1591, "RA_OF_ASC_NODE": 297.9221, "ARG_OF_PERICENTER": 110.2235, "MEAN_ANOMALY": 249.8938, "EPHEMERIS_TYPE": 0, "CLASSIFICATION_TYPE": "U", "NORAD_CAT_ID": 66396, "ELEMENT_SET_NO": 999, "REV_AT_EPOCH": 527, "BSTAR": 0.0020340148, "MEAN_MOTION_DOT": 0.00115623, "MEAN_MOTION_DDOT": 0}, "tle": {"line1": "1 66396U 25257S   25339.60237029  .00115623  00000+0  20340-2 0  9990", "line2": "2 66396  53.1591 297.9221 0001526 110.2235 249.8938 15.49619062  5276"}}, "geometry": {"type": "Point", "coordinates": [74.47452468729702, 40.39226220471331]}}, {"type": "Feature", "properties": {"norad_id": 66397, "name": "STARLINK-35510", "group": "last-30-days", "lat": 46.59141107560891, "lon": 61.705675386830094, "alt_km": 427.0007475066459, "timestamp": "2025-12-06T09:34:15.697970+00:00", "meta": {"OBJECT_NAME": "STARLINK-35510", "OBJECT_ID": "2025-257T", "EPOCH": "2025-12-05T22:00:03.000096", "MEAN_MOTION": 15.46223058, "ECCENTRICITY": 0.00012409, "INCLINATION": 53.1593, "RA_OF_ASC_NODE": 296.4248, "ARG_OF_PERICENTER": 107.167, "MEAN_ANOMALY": 204.424, "EPHEMERIS_TYPE": 0, "CLASSIFICATION_TYPE": "U", "NORAD_CAT_ID": 66397, "ELEMENT_SET_NO": 999, "REV_AT_EPOCH": 540, "BSTAR": -0.046581775, "MEAN_MOTION_DOT": -0.02067968, "MEAN_MOTION_DDOT": 0}, "tle": {"line1": "1 66397U 25257T   25339.91670139 -.02067968  00000+0 -46582-1 0  9995", "line2": "2 66397  53.1593 296.4248 0001240 107.1670 204.4240 15.46223058  5404"}}, "geometry": {"type": "Point", "coordinates": [61.705675386830094, 46.59141107560891]}}, {"type": "Feature", "properties": {"norad_id": 66398, "name": "STARLINK-35642", "group": "last-30-days", "lat": 40.02500266388841, "lon": 75.08333654673815, "alt_km": 416.59810110662966, "timestamp": "2025-12-06T09:34:15.697980+00:00", "meta": {"OBJECT_NAME": "STARLINK-35642", "OBJECT_ID": "2025-257U", "EPOCH": "2025-12-05T16:00:01.999584", "MEAN_MOTION": 15.49649434, "ECCENTRICITY": 9.953e-05, "INCLINATION": 53.1592, "RA_OF_ASC_NODE": 297.6078, "ARG_OF_PERICENTER": 83.9764, "MEAN_ANOMALY": 278.0758, "EPHEMERIS_TYPE": 0, "CLASSIFICATION_TYPE": "U", "NORAD_CAT_ID": 66398, "ELEMENT_SET_NO": 999, "REV_AT_EPOCH": 536, "BSTAR": -0.020106016, "MEAN_MOTION_DOT": -0.01030261, "MEAN_MOTION_DDOT": 0}, "tle": {"line1": "1 66398U 25257U   25339.66668981 -.01030261  00000+0 -20106-1 0  9999", "line2": "2 66398  53.1592 297.6078 0000995  83.9764 278.0758 15.49649434  5368"}}, "geometry": {"type": "Point", "coordinates": [75.08333654673815, 40.02500266388841]}}]}